[
    {
        "OBJECT_NAME": "QZS-2 (MICHIBIKI-2)",
        "OBJECT_ID": "2017-028A",
        "EPOCH": "2025-04-13T06:36:28.688256",
        "MEAN_MOTION": 1.00252525,
        "ECCENTRICITY": 0.074097,
        "INCLINATION": 40.0966,
        "RA_OF_ASC_NODE": 249.4203,
        "ARG_OF_PERICENTER": 270.6239,
        "MEAN_ANOMALY": 279.8397,
        "EPHEMERIS_TYPE": 0,
        "CLASSIFICATION_TYPE": "U",
        "NORAD_CAT_ID": 42738,
        "ELEMENT_SET_NO": 999,
        "REV_AT_EPOCH": 331,
        "BSTAR": 0,
        "MEAN_MOTION_DOT": -2.2e-06,
        "MEAN_MOTION_DDOT": 0
    },
    {
        "OBJECT_NAME": "QZS-4 (MICHIBIKI-4)",
        "OBJECT_ID": "2017-062A",
        "EPOCH": "2025-04-12T23:56:21.675840",
        "MEAN_MOTION": 1.00271088,
        "ECCENTRICITY": 0.0746985,
        "INCLINATION": 40.3617,
        "RA_OF_ASC_NODE": 348.9729,
        "ARG_OF_PERICENTER": 270.4521,
        "MEAN_ANOMALY": 80.9993,
        "EPHEMERIS_TYPE": 0,
        "CLASSIFICATION_TYPE": "U",
        "NORAD_CAT_ID": 42965,
        "ELEMENT_SET_NO": 999,
        "REV_AT_EPOCH": 2749,
        "BSTAR": 0,
        "MEAN_MOTION_DOT": -3.3e-06,
        "MEAN_MOTION_DDOT": 0
    },
    {
        "OBJECT_NAME": "QZS-1R (MICHIBIKI-1R)",
        "OBJECT_ID": "2021-096A",
        "EPOCH": "2025-04-13T19:36:38.520000",
        "MEAN_MOTION": 1.00276638,
        "ECCENTRICITY": 0.0752637,
        "INCLINATION": 36.5708,
        "RA_OF_ASC_NODE": 85.9786,
        "ARG_OF_PERICENTER": 270.4069,
        "MEAN_ANOMALY": 276.6701,
        "EPHEMERIS_TYPE": 0,
        "CLASSIFICATION_TYPE": "U",
        "NORAD_CAT_ID": 49336,
        "ELEMENT_SET_NO": 999,
        "REV_AT_EPOCH": 1270,
        "BSTAR": 0,
        "MEAN_MOTION_DOT": -2.13e-06,
        "MEAN_MOTION_DDOT": 0
    },
    {
        "OBJECT_NAME": "QZS-6 (MICHIBIKI-6)",
        "OBJECT_ID": "2025-023A",
        "EPOCH": "2025-04-13T21:50:38.427072",
        "MEAN_MOTION": 1.00272384,
        "ECCENTRICITY": 0.0001016,
        "INCLINATION": 0.0816,
        "RA_OF_ASC_NODE": 55.4068,
        "ARG_OF_PERICENTER": 324.6672,
        "MEAN_ANOMALY": 240.4691,
        "EPHEMERIS_TYPE": 0,
        "CLASSIFICATION_TYPE": "U",
        "NORAD_CAT_ID": 62876,
        "ELEMENT_SET_NO": 999,
        "REV_AT_EPOCH": 65,
        "BSTAR": 0,
        "MEAN_MOTION_DOT": -2.27e-06,
        "MEAN_MOTION_DDOT": 0
    }
]