QZS-2 (MICHIBIKI-2)     
1 42738U 17028A   25103.27533204 -.00000220  00000+0  00000+0 0  9992
2 42738  40.0966 249.4203 0740970 270.6239 279.8397  1.00252525  3315
QZS-4 (MICHIBIKI-4)     
1 42965U 17062A   25102.99747310 -.00000330  00000+0  00000+0 0  9997
2 42965  40.3617 348.9729 0746985 270.4521  80.9993  1.00271088 27498
QZS-1R (MICHIBIKI-1R)   
1 49336U 21096A   25103.81711250 -.00000213  00000+0  00000+0 0  9994
2 49336  36.5708  85.9786 0752637 270.4069 276.6701  1.00276638 12709
QZS-6 (MICHIBIKI-6)     
1 62876U 25023A   25103.91016698 -.00000227  00000+0  00000+0 0  9992
2 62876   0.0816  55.4068 0001016 324.6672 240.4691  1.00272384   656
